



Finding the Comet

C/2012 S1 (ISON)

Epoch 2012 Sept. 30.0 TT = JDT 2456200.5

T 2013 Nov. 28.8394 TT MPC

q 0.012521 (2000.0) P Q

z -0.000142 Peri. 345.4975 +0.3139615 +0.5214934

+/-0.000006 Node 295.7567 -0.7595010 -0.3634939

e 1.000002 Incl. 61.7529 -0.5697249 +0.7719565

From 1418 observations 2011 Dec. 28-2013 Jan. 12, mean residual 0".4.





SkyTools 3 Pro, I was able to plot the projected path. It is currently in Gemini, rising shortly before dusk. By May, it will be setting at dusk. Thereafter, it will remain below the horizon during the night time hours until it rises again before dawn in September. A 3-D diagram of the path through the solar system is shown on



First Glimpse - Jan 30 Importing these into, I was able to plot the projected path. It is currently in Gemini, rising shortly before dusk. By May, it will be setting at dusk. Thereafter, it will remain below the horizon during the night time hours until it rises again before dawn in September. A 3-D diagram of the path through the solar system is shown on Wikipedia and corresponds to an orbit with inclination of about 60 degrees. This is how much its orbital plane is tipped relative to that of the Earth. You can see a more precise inclination of 61.7529 listed in the orbital elements above. Also of interest is the eccentricity of 1.000002. Since it is greater than 1.0, the orbit is hyperbolic, not elliptical. This means that, unless something changes the orbit, the comet will not be coming back for a second visit.





Using SkyTools to control the mount, I centered the camera on the predicted position and took a sequence of 12 exposures, each 600 seconds long, using a 5" TMB-130SS, refractor guided on a nearby star and a QSI-540 cooled CCD camera with a luminance filter. I was not interested in color as much as in gathering the maximum amount of light with this small telescope.









Observations are between 2013.01.31 01:54 UTC and 2013.01.31 03:54 UTC from my observatory in Georgetown, Texas. Try rolling your your mouse over the images to see a zoomed-in view.



C/2012 S1 (ISON) at 2013-01-31 01:54 UTC C/2012 S1 (ISON) at 2013-01-31 03:54 UTC



The progression of the comet is clearly visible. Due to the exposure length, there is some smearing of the comet image; it is much too faint to try to be guided on with my equipment. Comparing against other stars in the image, the comet appears to be a bit brighter than the predicted magnitude 18.



I can't confirm any coma or tail yet as the amount of fuzziness is comparable with the evening's seeing conditions. As an added bonus, a faint galaxy, MCG 5-18-2, is labelled at the bottom of the image.



This next, zoomed-in image is an animation of the 12 observations, representing 2 hours of elapsed time. Again, no obvious tail yet. The "tumbling" effect you may notice is an artifact of the imaging and corresponds to a different pattern of blur in each frame.



Animation of C/2012 S1 (ISON) from 01:54 to 03:54 UTC This screen shot from SkyTools shows the plotted trajectory over this time period





Comet Gets a Tail - Feb 7



Tonight, I went back outside and imaged the comet again. It is still in the constellation Gemini, now about 1º 40' north of Tau Gem. According to a



I took a different approach to imaging the comet this time. Using the same equipment as before, I gathered a sequence of 20 shorter frames in order to reduce smearing of the comet image in any given frame. I confirmed that 300 seconds was short enough that the comet head was visually round - at least to within the evening's seeing conditions and my equipment. In each frame, a consistent tail was discernible on the comet, trailing behind the path of the comet (path is left to right in the images) and angled out by about 30 degrees.



This is the single full-frame image from 03:02 to 03:07 with no processing other than a dark-frame subtraction, a gamma stretch, and conversion to JPG. Zoom-in and try to find the comet near the center of the frame.





In order to emphasis the details of the comet tail, I combined the 20 images in post-processing. Using MaxIm DL, I first aligned the frames on the stars and stacked using "sigma clipping" mode. I then re-aligned the frames on the centroid of the comet and stacked using "averaging" mode. Finally, I normalized the background intensity of these two images and combined them using the single frame taken around 03:05 as a reference for alignment. The combined image was then stretched and moderate noise-reduction applied to the background. This process works because the comet only changes position, not shape over the two hours I was imaging.



In the image below, the comet is clearly visible and shows the beginnings of a tail. For reference and context, the brightest star, in the upper right corner, is TYC-02438-0115-1 located at RA: 07h09m38.3s, Dec: +31°47'24" and has visual magnitude 11.5.



I plate-solved the image spanning 03:02 to 03:07 using MaxIm DL/PinPoint. is a numeric technique whereby the stars in the image are identified and the patterns they make in the image are correlated against a large data-based of stars in order to find a match. This allows the direction in which the telescope was pointing to be inferred very accurately Once completed, the tool was then able to read off the position of the center of the comet in that frame as RA: 07h09m49.5s, Dec: +31°46'49". For comparison, this was the position computed by SkyTools for 03:07 UTC so pretty close. I am still impressed by how accurately the orbital elements can be estimated and used to place these fast moving objects in the sky.



Luminance image of C/2012 S1 (ISON) at 2013.02.08 03:05 UTC









The false-color image below makes it easier to see the tail, especially on a video display which has poor differentiation of dark shades. I used the Gradient Map tool in Photoshop to accomplish this effect.



False color image of C/2012 S1 (ISON) at 2013.02.08 03:05 UTC





